ONEWEB-0258             
1 48976U 21060K   25071.42281535 -.00000032  00000+0 -11766-3 0  9998
2 48976  87.9097 320.8422 0001713  78.0386 282.0937 13.16595909178837
ONEWEB-0259             
1 48977U 21060L   25071.64450586  .00000976  00000+0  25191-2 0  9998
2 48977  87.9110 320.7792 0001369  76.8306 283.2978 13.16591105178896
ONEWEB-0260             
1 48978U 21060M   25071.63576244 -.00000059  00000+0 -18775-3 0  9993
2 48978  87.9099 320.8139 0001991  94.7632 265.3726 13.16596557178877
ONEWEB-0261             
1 48979U 21060N   25071.60567608 -.00000234  00000+0 -64448-3 0  9998
2 48979  87.9102 320.8205 0002244  81.2731 278.8654 13.16593762178920
ONEWEB-0262             
1 48980U 21060P   25071.43388364  .00000118  00000+0  27627-3 0  9998
2 48980  87.9096 320.8113 0001741  70.1428 289.9891 13.16597407178862
ONEWEB-0263             
1 48981U 21060Q   25071.38955809  .00000104  00000+0  23966-3 0  9994
2 48981  87.9104 320.8446 0002116  74.2751 285.8613 13.16596002178826
ONEWEB-0264             
1 48982U 21060R   25071.42677189  .00000058  00000+0  11890-3 0  9993
2 48982  87.9099 320.8464 0001811  80.2870 279.8465 13.16596440178835
ONEWEB-0266             
1 48984U 21060T   25071.60013948  .00000100  00000+0  22850-3 0  9998
2 48984  87.9099 320.7828 0001621  75.6169 284.5141 13.16592343178841
